CCSDS_OMM_VERS = 2.0
CREATION_DATE  = 
ORIGINATOR     = 

OBJECT_NAME    = UNKNOWN
OBJECT_ID      = 
CENTER_NAME    = EARTH
REF_FRAME      = TEME
TIME_SYSTEM    = UTC
MEAN_ELEMENT_THEORY = SGP/SGP4

EPOCH          = 2026-04-03T12:39:35.785728
MEAN_MOTION    = 13.94112660
ECCENTRICITY   = .0497161
INCLINATION    = 63.0073
RA_OF_ASC_NODE = 287.7929
ARG_OF_PERICENTER = 304.5300
MEAN_ANOMALY   = 50.9753

EPHEMERIS_TYPE = 0
CLASSIFICATION_TYPE = U
NORAD_CAT_ID   = 82205
ELEMENT_SET_NO = 999
REV_AT_EPOCH   = 62358
BSTAR          = .67205E-3
MEAN_MOTION_DOT = .2393E-4
MEAN_MOTION_DDOT = 0

CCSDS_OMM_VERS = 2.0
CREATION_DATE  = 
ORIGINATOR     = 

OBJECT_NAME    = UNKNOWN
OBJECT_ID      = 
CENTER_NAME    = EARTH
REF_FRAME      = TEME
TIME_SYSTEM    = UTC
MEAN_ELEMENT_THEORY = SGP/SGP4

EPOCH          = 2026-04-02T03:48:32.729760
MEAN_MOTION    = 14.12465804
ECCENTRICITY   = .0070123
INCLINATION    = 99.3145
RA_OF_ASC_NODE = 347.4220
ARG_OF_PERICENTER = 36.8197
MEAN_ANOMALY   = 323.7760

EPHEMERIS_TYPE = 0
CLASSIFICATION_TYPE = U
NORAD_CAT_ID   = 82223
ELEMENT_SET_NO = 999
REV_AT_EPOCH   = 46437
BSTAR          = .17752E-2
MEAN_MOTION_DOT = .3308E-4
MEAN_MOTION_DDOT = 0

CCSDS_OMM_VERS = 2.0
CREATION_DATE  = 
ORIGINATOR     = 

OBJECT_NAME    = UNKNOWN
OBJECT_ID      = 
CENTER_NAME    = EARTH
REF_FRAME      = TEME
TIME_SYSTEM    = UTC
MEAN_ELEMENT_THEORY = SGP/SGP4

EPOCH          = 2026-04-04T13:59:17.272320
MEAN_MOTION    = 14.14782731
ECCENTRICITY   = .0068253
INCLINATION    = 98.9073
RA_OF_ASC_NODE = 4.7220
ARG_OF_PERICENTER = 232.4534
MEAN_ANOMALY   = 249.7426

EPHEMERIS_TYPE = 0
CLASSIFICATION_TYPE = U
NORAD_CAT_ID   = 82250
ELEMENT_SET_NO = 999
REV_AT_EPOCH   = 63258
BSTAR          = .24969E-2
MEAN_MOTION_DOT = .488E-4
MEAN_MOTION_DDOT = 0

CCSDS_OMM_VERS = 2.0
CREATION_DATE  = 
ORIGINATOR     = 

OBJECT_NAME    = UNKNOWN
OBJECT_ID      = 
CENTER_NAME    = EARTH
REF_FRAME      = TEME
TIME_SYSTEM    = UTC
MEAN_ELEMENT_THEORY = SGP/SGP4

EPOCH          = 2026-04-01T00:02:31.488576
MEAN_MOTION    = 12.33660915
ECCENTRICITY   = .0754916
INCLINATION    = 67.5293
RA_OF_ASC_NODE = 2.8586
ARG_OF_PERICENTER = 35.9129
MEAN_ANOMALY   = 329.0267

EPHEMERIS_TYPE = 0
CLASSIFICATION_TYPE = U
NORAD_CAT_ID   = 82272
ELEMENT_SET_NO = 999
REV_AT_EPOCH   = 28541
BSTAR          = .32234E-2
MEAN_MOTION_DOT = .998E-5
MEAN_MOTION_DDOT = 0

CCSDS_OMM_VERS = 2.0
CREATION_DATE  = 
ORIGINATOR     = 

OBJECT_NAME    = UNKNOWN
OBJECT_ID      = 
CENTER_NAME    = EARTH
REF_FRAME      = TEME
TIME_SYSTEM    = UTC
MEAN_ELEMENT_THEORY = SGP/SGP4

EPOCH          = 2026-04-04T05:23:10.843584
MEAN_MOTION    = 13.93497834
ECCENTRICITY   = .0034667
INCLINATION    = 81.9380
RA_OF_ASC_NODE = 265.4835
ARG_OF_PERICENTER = 343.0466
MEAN_ANOMALY   = 196.5557

EPHEMERIS_TYPE = 0
CLASSIFICATION_TYPE = U
NORAD_CAT_ID   = 82303
ELEMENT_SET_NO = 999
REV_AT_EPOCH   = 53005
BSTAR          = .3454E-1
MEAN_MOTION_DOT = .45739E-3
MEAN_MOTION_DDOT = 0

CCSDS_OMM_VERS = 2.0
CREATION_DATE  = 
ORIGINATOR     = 

OBJECT_NAME    = UNKNOWN
OBJECT_ID      = 
CENTER_NAME    = EARTH
REF_FRAME      = TEME
TIME_SYSTEM    = UTC
MEAN_ELEMENT_THEORY = SGP/SGP4

EPOCH          = 2026-04-04T14:45:43.902144
MEAN_MOTION    = 13.54698367
ECCENTRICITY   = .0107648
INCLINATION    = 99.4194
RA_OF_ASC_NODE = 148.2769
ARG_OF_PERICENTER = 24.1219
MEAN_ANOMALY   = 336.4908

EPHEMERIS_TYPE = 0
CLASSIFICATION_TYPE = U
NORAD_CAT_ID   = 82311
ELEMENT_SET_NO = 999
REV_AT_EPOCH   = 56560
BSTAR          = .98567E-3
MEAN_MOTION_DOT = .659E-5
MEAN_MOTION_DDOT = 0

CCSDS_OMM_VERS = 2.0
CREATION_DATE  = 
ORIGINATOR     = 

OBJECT_NAME    = UNKNOWN
OBJECT_ID      = 
CENTER_NAME    = EARTH
REF_FRAME      = TEME
TIME_SYSTEM    = UTC
MEAN_ELEMENT_THEORY = SGP/SGP4

EPOCH          = 2026-04-02T08:47:41.912448
MEAN_MOTION    = 13.15728719
ECCENTRICITY   = .0451353
INCLINATION    = 66.9378
RA_OF_ASC_NODE = 317.0821
ARG_OF_PERICENTER = 94.3601
MEAN_ANOMALY   = 270.9134

EPHEMERIS_TYPE = 0
CLASSIFICATION_TYPE = U
NORAD_CAT_ID   = 82363
ELEMENT_SET_NO = 999
REV_AT_EPOCH   = 30481
BSTAR          = .15056E-2
MEAN_MOTION_DOT = .895E-5
MEAN_MOTION_DDOT = 0

CCSDS_OMM_VERS = 2.0
CREATION_DATE  = 
ORIGINATOR     = 

OBJECT_NAME    = UNKNOWN
OBJECT_ID      = 
CENTER_NAME    = EARTH
REF_FRAME      = TEME
TIME_SYSTEM    = UTC
MEAN_ELEMENT_THEORY = SGP/SGP4

EPOCH          = 2026-04-02T07:21:03.743712
MEAN_MOTION    = 13.98236560
ECCENTRICITY   = .0083676
INCLINATION    = 98.8933
RA_OF_ASC_NODE = 109.0284
ARG_OF_PERICENTER = 33.9984
MEAN_ANOMALY   = 326.6502

EPHEMERIS_TYPE = 0
CLASSIFICATION_TYPE = U
NORAD_CAT_ID   = 82369
ELEMENT_SET_NO = 999
REV_AT_EPOCH   = 57262
BSTAR          = .16448E-3
MEAN_MOTION_DOT = .199E-5
MEAN_MOTION_DDOT = 0

CCSDS_OMM_VERS = 2.0
CREATION_DATE  = 
ORIGINATOR     = 

OBJECT_NAME    = UNKNOWN
OBJECT_ID      = 
CENTER_NAME    = EARTH
REF_FRAME      = TEME
TIME_SYSTEM    = UTC
MEAN_ELEMENT_THEORY = SGP/SGP4

EPOCH          = 2026-04-03T02:13:39.162432
MEAN_MOTION    = 14.87113547
ECCENTRICITY   = .0008031
INCLINATION    = 98.3892
RA_OF_ASC_NODE = 328.5696
ARG_OF_PERICENTER = 133.5860
MEAN_ANOMALY   = 226.6022

EPHEMERIS_TYPE = 0
CLASSIFICATION_TYPE = U
NORAD_CAT_ID   = 82381
ELEMENT_SET_NO = 999
REV_AT_EPOCH   = 52732
BSTAR          = .55991E-2
MEAN_MOTION_DOT = .50602E-3
MEAN_MOTION_DDOT = 0

CCSDS_OMM_VERS = 2.0
CREATION_DATE  = 
ORIGINATOR     = 

OBJECT_NAME    = UNKNOWN
OBJECT_ID      = 
CENTER_NAME    = EARTH
REF_FRAME      = TEME
TIME_SYSTEM    = UTC
MEAN_ELEMENT_THEORY = SGP/SGP4

EPOCH          = 2026-04-03T10:53:05.536320
MEAN_MOTION    = 15.05186519
ECCENTRICITY   = .0009995
INCLINATION    = 86.6581
RA_OF_ASC_NODE = 107.2723
ARG_OF_PERICENTER = 108.7035
MEAN_ANOMALY   = 251.5286

EPHEMERIS_TYPE = 0
CLASSIFICATION_TYPE = U
NORAD_CAT_ID   = 82402
ELEMENT_SET_NO = 999
REV_AT_EPOCH   = 47126
BSTAR          = .77395E-3
MEAN_MOTION_DOT = .11079E-3
MEAN_MOTION_DDOT = 0

CCSDS_OMM_VERS = 2.0
CREATION_DATE  = 
ORIGINATOR     = 

OBJECT_NAME    = UNKNOWN
OBJECT_ID      = 
CENTER_NAME    = EARTH
REF_FRAME      = TEME
TIME_SYSTEM    = UTC
MEAN_ELEMENT_THEORY = SGP/SGP4

EPOCH          = 2026-04-02T19:45:29.961216
MEAN_MOTION    = 14.59039398
ECCENTRICITY   = .0057748
INCLINATION    = 74.0045
RA_OF_ASC_NODE = 128.6334
ARG_OF_PERICENTER = 265.7085
MEAN_ANOMALY   = 93.7479

EPHEMERIS_TYPE = 0
CLASSIFICATION_TYPE = U
NORAD_CAT_ID   = 82432
ELEMENT_SET_NO = 999
REV_AT_EPOCH   = 49910
BSTAR          = .48039E-3
MEAN_MOTION_DOT = .2279E-4
MEAN_MOTION_DDOT = 0

CCSDS_OMM_VERS = 2.0
CREATION_DATE  = 
ORIGINATOR     = 

OBJECT_NAME    = UNKNOWN
OBJECT_ID      = 
CENTER_NAME    = EARTH
REF_FRAME      = TEME
TIME_SYSTEM    = UTC
MEAN_ELEMENT_THEORY = SGP/SGP4

EPOCH          = 2026-04-04T13:11:51.647712
MEAN_MOTION    = 15.05462907
ECCENTRICITY   = .0008414
INCLINATION    = 85.8723
RA_OF_ASC_NODE = 139.0002
ARG_OF_PERICENTER = 196.2938
MEAN_ANOMALY   = 163.8027

EPHEMERIS_TYPE = 0
CLASSIFICATION_TYPE = U
NORAD_CAT_ID   = 82448
ELEMENT_SET_NO = 999
REV_AT_EPOCH   = 45400
BSTAR          = .56463E-3
MEAN_MOTION_DOT = .8147E-4
MEAN_MOTION_DDOT = 0

CCSDS_OMM_VERS = 2.0
CREATION_DATE  = 
ORIGINATOR     = 

OBJECT_NAME    = UNKNOWN
OBJECT_ID      = 
CENTER_NAME    = EARTH
REF_FRAME      = TEME
TIME_SYSTEM    = UTC
MEAN_ELEMENT_THEORY = SGP/SGP4

EPOCH          = 2026-04-03T08:38:50.969760
MEAN_MOTION    = 12.39713430
ECCENTRICITY   = .0094095
INCLINATION    = 102.1968
RA_OF_ASC_NODE = 54.7304
ARG_OF_PERICENTER = 1.5838
MEAN_ANOMALY   = 358.5507

EPHEMERIS_TYPE = 0
CLASSIFICATION_TYPE = U
NORAD_CAT_ID   = 82453
ELEMENT_SET_NO = 999
REV_AT_EPOCH   = 55989
BSTAR          = .3827E-3
MEAN_MOTION_DOT = .6E-7
MEAN_MOTION_DDOT = 0

CCSDS_OMM_VERS = 2.0
CREATION_DATE  = 
ORIGINATOR     = 

OBJECT_NAME    = UNKNOWN
OBJECT_ID      = 
CENTER_NAME    = EARTH
REF_FRAME      = TEME
TIME_SYSTEM    = UTC
MEAN_ELEMENT_THEORY = SGP/SGP4

EPOCH          = 2026-04-04T12:00:15.028416
MEAN_MOTION    = 13.55846886
ECCENTRICITY   = .0043682
INCLINATION    = 99.3472
RA_OF_ASC_NODE = 115.3001
ARG_OF_PERICENTER = 268.0524
MEAN_ANOMALY   = 91.5612

EPHEMERIS_TYPE = 0
CLASSIFICATION_TYPE = U
NORAD_CAT_ID   = 82484
ELEMENT_SET_NO = 999
REV_AT_EPOCH   = 60591
BSTAR          = .41061E-3
MEAN_MOTION_DOT = .246E-5
MEAN_MOTION_DDOT = 0

CCSDS_OMM_VERS = 2.0
CREATION_DATE  = 
ORIGINATOR     = 

OBJECT_NAME    = UNKNOWN
OBJECT_ID      = 
CENTER_NAME    = EARTH
REF_FRAME      = TEME
TIME_SYSTEM    = UTC
MEAN_ELEMENT_THEORY = SGP/SGP4

EPOCH          = 2026-04-04T13:52:13.312704
MEAN_MOTION    = 14.91070763
ECCENTRICITY   = .0009487
INCLINATION    = 74.0045
RA_OF_ASC_NODE = 156.1677
ARG_OF_PERICENTER = 282.3821
MEAN_ANOMALY   = 77.6299

EPHEMERIS_TYPE = 0
CLASSIFICATION_TYPE = U
NORAD_CAT_ID   = 82494
ELEMENT_SET_NO = 999
REV_AT_EPOCH   = 10175
BSTAR          = .25423E-2
MEAN_MOTION_DOT = .25262E-3
MEAN_MOTION_DDOT = 0

CCSDS_OMM_VERS = 2.0
CREATION_DATE  = 
ORIGINATOR     = 

OBJECT_NAME    = UNKNOWN
OBJECT_ID      = 
CENTER_NAME    = EARTH
REF_FRAME      = TEME
TIME_SYSTEM    = UTC
MEAN_ELEMENT_THEORY = SGP/SGP4

EPOCH          = 2026-04-04T08:11:22.420608
MEAN_MOTION    = 14.19408542
ECCENTRICITY   = .0121507
INCLINATION    = 70.9637
RA_OF_ASC_NODE = 125.3524
ARG_OF_PERICENTER = 301.8791
MEAN_ANOMALY   = 57.0556

EPHEMERIS_TYPE = 0
CLASSIFICATION_TYPE = U
NORAD_CAT_ID   = 82500
ELEMENT_SET_NO = 999
REV_AT_EPOCH   = 63492
BSTAR          = .25798E-2
MEAN_MOTION_DOT = .5799E-4
MEAN_MOTION_DDOT = 0

